NORAD_CAT_ID,OBJECT_NAME,OBJECT_TYPE,EPOCH,MEAN_MOTION,ECCENTRICITY,INCLINATION,RA_OF_ASC_NODE,ARG_OF_PERICENTER,MEAN_ANOMALY,BSTAR,MEAN_MOTION_DOT,MEAN_MOTION_DDOT,TLE_LINE0,TLE_LINE1,TLE_LINE2,SEMIMAJOR_AXIS,PERIOD,APOGEE,PERIGEE,DECAYED
52581.0,STARLINK-3915,PAYLOAD,2024-05-27 17:35:33,15.0883439,0.0001576,53.2167,161.3791,85.675,274.4422,8.3963e-05,1.048e-05,0.0,0 STARLINK-3915,1 52581U 22051AX  24148.73302808  .00001048  00000-0  83963-4 0  9997,2 52581  53.2167 161.3791 0001576  85.6750 274.4422 15.08834390113310,6917.898,95.438,540.853,538.672,0.0
52581.0,STARLINK-3915,PAYLOAD,2024-05-28 09:29:24,15.08838039,0.0001554,53.2164,158.4051,86.668,273.449,6.408e-05,7.32e-06,0.0,0 STARLINK-3915,1 52581U 22051AX  24149.39542699  .00000732  00000-0  64080-4 0  9992,2 52581  53.2164 158.4051 0001554  86.6680 273.4490 15.08838039113488,6917.886,95.438,540.826,538.676,0.0
52581.0,STARLINK-3915,PAYLOAD,2024-05-29 09:20:12,15.08837249,0.0001543,53.2162,153.9443,85.2399,274.877,8.0688e-05,9.96e-06,0.0,0 STARLINK-3915,1 52581U 22051AX  24150.38902851  .00000996  00000-0  80688-4 0  9997,2 52581  53.2162 153.9443 0001543  85.2399 274.8770 15.08837249113568,6917.889,95.438,540.821,538.686,0.0
52581.0,STARLINK-3915,PAYLOAD,2024-05-30 04:24:49,15.08840372,0.000153,53.216,150.3765,87.3435,272.7732,8.3282e-05,1.038e-05,0.0,0 STARLINK-3915,1 52581U 22051AX  24151.18390867  .00001038  00000-0  83282-4 0  9995,2 52581  53.2160 150.3765 0001530  87.3435 272.7732 15.08840372113751,6917.879,95.438,540.803,538.686,0.0
52581.0,STARLINK-3915,PAYLOAD,2024-05-31 05:50:59,15.08845565,0.0001596,53.2164,145.6177,83.783,276.3344,0.00010939,1.454e-05,0.0,0 STARLINK-3915,1 52581U 22051AX  24152.24374507  .00001454  00000-0  10939-3 0  9996,2 52581  53.2164 145.6177 0001596  83.7830 276.3344 15.08845565113916,6917.863,95.437,540.832,538.624,0.0
52581.0,STARLINK-3915,PAYLOAD,2024-05-31 16:58:41,15.08848039,0.000152,53.2161,143.5364,90.9621,269.1545,0.00012816,1.753e-05,0.0,0 STARLINK-3915,1 52581U 22051AX  24152.70742156  .00001753  00000-0  12816-3 0  9994,2 52581  53.2161 143.5364 0001520  90.9621 269.1545 15.08848039113915,6917.856,95.437,540.772,538.669,0.0
52581.0,STARLINK-3915,PAYLOAD,2024-06-01 05:41:47,15.08838,0.0001729,53.2167,141.1569,97.6135,262.5054,2.213e-05,6.4e-07,0.0,0 STARLINK-3915,1 52581U 22051AX  24153.23734965  .00000064  00000-0  22130-4 0  9997,2 52581  53.2167 141.1569 0001729  97.6135 262.5054 15.08838000114063,6917.887,95.438,540.948,538.555,0.0
52581.0,STARLINK-3915,PAYLOAD,2024-06-01 08:52:33,15.08837162,0.0001682,53.2173,140.5626,97.0309,263.0875,1.4325e-05,-6e-07,0.0,0 STARLINK-3915,1 52581U 22051AX  24153.36983049 -.00000060  00000-0  14325-4 0  9994,2 52581  53.2173 140.5626 0001682  97.0309 263.0875 15.08837162114012,6917.889,95.438,540.918,538.59,0.0
52581.0,STARLINK-3915,PAYLOAD,2024-06-02 08:43:20,15.08839408,0.0001621,53.2176,136.103,94.6805,265.4372,-2.4293e-06,-3.27e-06,0.0,0 STARLINK-3915,1 52581U 22051AX  24154.36342989 -.00000327  00000-0 -24293-5 0  9990,2 52581  53.2176 136.1030 0001621  94.6805 265.4372 15.08839408114239,6917.882,95.438,540.869,538.626,0.0
52581.0,STARLINK-3915,PAYLOAD,2024-06-03 05:23:21,15.08837261,0.0001507,53.2176,132.2381,91.2963,268.8202,7.7091e-05,9.39e-06,0.0,0 STARLINK-3915,1 52581U 22051AX  24155.22455089  .00000939  00000-0  77091-4 0  9992,2 52581  53.2176 132.2381 0001507  91.2963 268.8202 15.08837261114296,6917.889,95.438,540.796,538.711,0.0
52581.0,STARLINK-3915,PAYLOAD,2024-06-03 14:55:39,15.0884086,0.0001513,53.2178,130.4544,91.4391,268.6774,8.0711e-05,9.97e-06,0.0,0 STARLINK-3915,1 52581U 22051AX  24155.62198930  .00000997  00000-0  80711-4 0  9992,2 52581  53.2178 130.4544 0001513  91.4391 268.6774 15.08840860114429,6917.878,95.438,540.789,538.696,0.0
52581.0,STARLINK-3915,PAYLOAD,2024-06-03 22:52:35,15.0883957,0.0001523,53.2181,128.9679,92.0106,268.106,7.8803e-05,9.66e-06,0.0,0 STARLINK-3915,1 52581U 22051AX  24155.95319052  .00000966  00000-0  78803-4 0  9993,2 52581  53.2181 128.9679 0001523  92.0106 268.1060 15.08839570114403,6917.882,95.438,540.8,538.693,0.0
52581.0,STARLINK-3915,PAYLOAD,2024-06-04 05:14:07,15.08843205,0.0001517,53.2181,127.7787,92.2519,267.8646,0.00010392,1.366e-05,0.0,0 STARLINK-3915,1 52581U 22051AX  24156.21814784  .00001366  00000-0  10392-3 0  9998,2 52581  53.2181 127.7787 0001517  92.2519 267.8646 15.08843205114443,6917.871,95.437,540.785,538.686,0.0
52581.0,STARLINK-3915,PAYLOAD,2024-06-04 14:46:26,15.08850459,0.0001555,53.2186,125.9947,92.2706,267.8464,0.0001495,2.093e-05,0.0,0 STARLINK-3915,1 52581U 22051AX  24156.61558119  .00002093  00000-0  14950-3 0  9991,2 52581  53.2186 125.9947 0001555  92.2706 267.8464 15.08850459114577,6917.848,95.437,540.789,538.638,0.0
52581.0,STARLINK-3915,PAYLOAD,2024-06-05 05:04:56,15.08826981,0.0001352,53.2179,123.3191,89.8838,270.2309,-5.2454e-05,-1.122e-05,0.0,0 STARLINK-3915,1 52581U 22051AX  24157.21176362 -.00001122  00000-0 -52454-4 0  9990,2 52581  53.2179 123.3191 0001352  89.8838 270.2309 15.08826981114664,6917.92,95.438,540.72,538.85,0.0
52581.0,STARLINK-3915,PAYLOAD,2024-06-05 14:37:14,15.08834909,0.0001632,53.2176,121.5345,88.3578,271.7601,4.1512e-07,-2.81e-06,0.0,0 STARLINK-3915,1 52581U 22051AX  24157.60919959 -.00000281  00000-0  41512-6 0  9999,2 52581  53.2176 121.5345 0001632  88.3578 271.7601 15.08834909114657,6917.896,95.438,540.89,538.632,0.0
52581.0,STARLINK-3915,PAYLOAD,2024-06-05 20:58:47,15.08836745,0.0001455,53.2168,120.3435,84.0818,276.034,5.7153e-05,6.22e-06,0.0,0 STARLINK-3915,1 52581U 22051AX  24157.87415698  .00000622  00000-0  57153-4 0  9993,2 52581  53.2168 120.3435 0001455  84.0818 276.0340 15.08836745114768,6917.89,95.438,540.762,538.749,0.0
52581.0,STARLINK-3915,PAYLOAD,2024-06-06 04:55:42,15.08843752,0.000147,53.2164,118.8571,84.0415,276.0745,0.00010153,1.328e-05,0.0,0 STARLINK-3915,1 52581U 22051AX  24158.20535147  .00001328  00000-0  10153-3 0  9995,2 52581  53.2164 118.8571 0001470  84.0415 276.0745 15.08843752114818,6917.869,95.437,540.751,538.717,0.0
52581.0,STARLINK-3915,PAYLOAD,2024-06-06 14:28:00,15.08855876,0.000151,53.2172,117.0694,70.1348,289.9807,0.00021561,3.147e-05,0.0,0 STARLINK-3915,1 52581U 22051AX  24158.60278325  .00003147  00000-0  21561-3 0  9997,2 52581  53.2172 117.0694 0001510  70.1348 289.9807 15.08855876114801,6917.832,95.437,540.741,538.652,0.0
52581.0,STARLINK-3915,PAYLOAD,2024-06-07 14:18:48,15.08847841,0.0001488,53.2177,112.6135,78.54,281.5759,0.00026418,3.92e-05,0.0,0 STARLINK-3915,1 52581U 22051AX  24159.59639300  .00003920  00000-0  26418-3 0  9995,2 52581  53.2177 112.6135 0001488  78.5400 281.5759 15.08847841114955,6917.856,95.437,540.751,538.692,0.0
52581.0,STARLINK-3915,PAYLOAD,2024-06-07 20:40:21,15.08844585,0.0001469,53.2163,111.4234,84.7693,275.3466,0.00016929,2.408e-05,0.0,0 STARLINK-3915,1 52581U 22051AX  24159.86135446  .00002408  00000-0  16929-3 0  9993,2 52581  53.2163 111.4234 0001469  84.7693 275.3466 15.08844585115060,6917.866,95.437,540.748,538.715,0.0
52581.0,STARLINK-3915,PAYLOAD,2024-06-08 14:09:34,15.08858756,0.0001605,53.2165,108.1501,90.1388,269.9788,0.00038793,5.894e-05,0.0,0 STARLINK-3915,1 52581U 22051AX  24160.58998559  .00005894  00000-0  38793-3 0  9991,2 52581  53.2165 108.1501 0001605  90.1388 269.9788 15.08858756115102,6917.823,95.436,540.798,538.578,0.0
52581.0,STARLINK-3915,PAYLOAD,2024-06-09 02:52:40,15.0884111,0.0001474,53.2175,105.773,98.9983,261.1176,0.00013606,1.878e-05,0.0,0 STARLINK-3915,1 52581U 22051AX  24161.11991374  .00001878  00000-0  13606-3 0  9993,2 52581  53.2175 105.7730 0001474  98.9983 261.1176 15.08841110115258,6917.877,95.437,540.762,538.722,0.0
52581.0,STARLINK-3915,PAYLOAD,2024-06-10 02:43:27,15.08858589,0.000149,53.2174,101.3123,106.8594,253.2561,0.001087,0.00017063,0.0,0 STARLINK-3915,1 52581U 22051AX  24162.11351289  .00017063  00000-0  10870-2 0  9991,2 52581  53.2174 101.3123 0001490 106.8594 253.2561 15.08858589115405,6917.824,95.436,540.719,538.658,0.0
52581.0,STARLINK-3915,PAYLOAD,2024-06-11 02:34:14,15.08840789,0.0001137,53.2175,96.8513,78.7802,281.3318,0.00010558,1.393e-05,0.0,0 STARLINK-3915,1 52581U 22051AX  24163.10710983  .00001393  00000-0  10558-3 0  9994,2 52581  53.2175  96.8513 0001137  78.7802 281.3318 15.08840789115555,6917.878,95.438,540.53,538.956,0.0
52581.0,STARLINK-3915,PAYLOAD,2024-06-11 12:06:33,15.08844487,0.0001187,53.2179,95.0689,84.083,276.0298,0.00068934,0.00010701,0.0,0 STARLINK-3915,1 52581U 22051AX  24163.50455114  .00010701  00000-0  68934-3 0  9994,2 52581  53.2179  95.0689 0001187  84.0830 276.0298 15.08844487115546,6917.867,95.437,540.553,538.911,0.0
52581.0,STARLINK-3915,PAYLOAD,2024-06-12 02:25:02,15.08825599,0.0001331,53.2182,92.3953,104.5695,255.5445,0.00020187,2.925e-05,0.0,0 STARLINK-3915,1 52581U 22051AX  24164.10072161  .00002925  00000-0  20187-3 0  9995,2 52581  53.2182  92.3953 0001331 104.5695 255.5445 15.08825599115709,6917.924,95.438,540.71,538.869,0.0
52581.0,STARLINK-3915,PAYLOAD,2024-06-12 11:57:21,15.08835496,0.0001288,53.2183,90.6103,99.0493,261.0645,0.0007713,0.00012007,0.0,0 STARLINK-3915,1 52581U 22051AX  24164.49816529  .00012007  00000-0  77130-3 0  9993,2 52581  53.2183  90.6103 0001288  99.0493 261.0645 15.08835496115692,6917.894,95.438,540.65,538.868,0.0
52581.0,STARLINK-3915,PAYLOAD,2024-06-13 03:51:12,15.0884691,0.0001213,53.2174,87.6359,92.7203,267.3928,0.00083769,0.00013071,0.0,0 STARLINK-3915,1 52581U 22051AX  24165.16056631  .00013071  00000-0  83769-3 0  9995,2 52581  53.2174  87.6359 0001213  92.7203 267.3928 15.08846910115863,6917.859,95.437,540.563,538.885,0.0
52581.0,STARLINK-3915,PAYLOAD,2024-06-13 11:48:08,15.08861975,0.0001257,53.2175,86.1488,80.7263,279.3871,0.00091774,0.00014357,0.0,0 STARLINK-3915,1 52581U 22051AX  24165.49176132  .00014357  00000-0  91774-3 0  9993,2 52581  53.2175  86.1488 0001257  80.7263 279.3871 15.08861975115848,6917.813,95.436,540.548,538.809,0.0
